ONEWEB-0300             
1 49089U 21075Q   25343.12095397  .00000448  00000+0  12111-2 0  9991
2 49089  87.8943  28.4081 0002033 101.8476 258.2880 13.12444609210278
ONEWEB-0301             
1 49090U 21075R   25343.18096941  .00000041  00000+0  79719-4 0  9993
2 49090  87.8942  28.3983 0002124 102.0808 258.0559 13.12444916209643
ONEWEB-0302             
1 49091U 21075S   25343.16797898 -.00000270  00000+0 -78531-3 0  9997
2 49091  87.8942  28.4089 0001462  91.3510 268.7786 13.12445385209625
ONEWEB-0304             
1 49092U 21075T   25343.17604992  .00000069  00000+0  14581-3 0  9990
2 49092  87.9121  43.6471 0001632 102.9201 257.2113 13.17649604208558
ONEWEB-0305             
1 49093U 21075U   25343.16928315  .00000130  00000+0  30277-3 0  9997
2 49093  87.9122  43.6256 0001485 113.1027 247.0261 13.17651424208584
ONEWEB-0308             
1 49094U 21075V   25343.16148772 -.00000316  00000+0 -91502-3 0  9995
2 49094  87.8944  28.4035 0001757  97.8267 262.3061 13.12444335209639
ONEWEB-0309             
1 49095U 21075W   25343.17266750  .00000053  00000+0  10327-3 0  9996
2 49095  87.9121  43.6407 0001465  88.7851 271.3448 13.17650418208559
ONEWEB-0310             
1 49096U 21075X   25343.17608719 -.00000026  00000+0 -10777-3 0  9993
2 49096  87.8936  28.4374 0001682  94.8616 265.2705 13.12445820210268
